{
  "type": "FeatureCollection",
  "features": [
    {
      "type": "Feature",
      "properties": {
        "norad_id": 42988,
        "name": "SKYSAT-C10",
        "group": "resource",
        "lat": -6.711481237165855,
        "lon": -72.23635258110393,
        "alt_km": 472.3863902256044,
        "timestamp": "2025-12-03T19:33:06.637174+00:00",
        "meta_object_name": "SKYSAT-C10",
        "meta_object_id": "2017-068B",
        "meta_epoch": "2025-12-02T22:21:40.538016",
        "meta_mean_motion": 15.31972305,
        "meta_eccentricity": 0.00054851,
        "meta_inclination": 97.4254,
        "meta_ra_of_asc_node": 107.758,
        "meta_arg_of_pericenter": 121.5944,
        "meta_mean_anomaly": 238.5834,
        "meta_ephemeris_type": 0,
        "meta_classification_type": "U",
        "meta_norad_cat_id": 42988,
        "meta_element_set_no": 999,
        "meta_rev_at_epoch": 45229,
        "meta_bstar": 0.00048523918,
        "meta_mean_motion_dot": 0.0001492,
        "meta_mean_motion_ddot": 0,
        "tle_line1": "1 42988U 17068B   25336.93171919  .00014920  00000+0  48524-3 0  9993",
        "tle_line2": "2 42988  97.4254 107.7580 0005485 121.5944 238.5834 15.31972305452291"
      },
      "geometry": {
        "type": "Point",
        "coordinates": [
          -72.23635258110393,
          -6.711481237165855
        ]
      }
    },
    {
      "type": "Feature",
      "properties": {
        "norad_id": 42989,
        "name": "SKYSAT-C9",
        "group": "resource",
        "lat": -82.12786259350993,
        "lon": -142.44408197483943,
        "alt_km": 472.6191412442531,
        "timestamp": "2025-12-03T19:33:06.637185+00:00",
        "meta_object_name": "SKYSAT-C9",
        "meta_object_id": "2017-068C",
        "meta_epoch": "2025-12-03T07:26:41.093376",
        "meta_mean_motion": 15.35663642,
        "meta_eccentricity": 0.0010656,
        "meta_inclination": 97.4181,
        "meta_ra_of_asc_node": 107.4928,
        "meta_arg_of_pericenter": 118.4676,
        "meta_mean_anomaly": 241.7642,
        "meta_ephemeris_type": 0,
        "meta_classification_type": "U",
        "meta_norad_cat_id": 42989,
        "meta_element_set_no": 999,
        "meta_rev_at_epoch": 45263,
        "meta_bstar": 0.00051582,
        "meta_mean_motion_dot": 0.00017859,
        "meta_mean_motion_ddot": 0,
        "tle_line1": "1 42989U 17068C   25337.31019784  .00017859  00000+0  51582-3 0  9990",
        "tle_line2": "2 42989  97.4181 107.4928 0010656 118.4676 241.7642 15.35663642452633"
      },
      "geometry": {
        "type": "Point",
        "coordinates": [
          -142.44408197483943,
          -82.12786259350993
        ]
      }
    },
    {
      "type": "Feature",
      "properties": {
        "norad_id": 42990,
        "name": "SKYSAT-C8",
        "group": "resource",
        "lat": -22.175704288555732,
        "lon": 110.82653399553001,
        "alt_km": 472.4179330647312,
        "timestamp": "2025-12-03T19:33:06.637195+00:00",
        "meta_object_name": "SKYSAT-C8",
        "meta_object_id": "2017-068D",
        "meta_epoch": "2025-12-03T08:40:49.285920",
        "meta_mean_motion": 15.32591193,
        "meta_eccentricity": 0.0002138,
        "meta_inclination": 97.4276,
        "meta_ra_of_asc_node": 107.3238,
        "meta_arg_of_pericenter": 20.8158,
        "meta_mean_anomaly": 339.317,
        "meta_ephemeris_type": 0,
        "meta_classification_type": "U",
        "meta_norad_cat_id": 42990,
        "meta_element_set_no": 999,
        "meta_rev_at_epoch": 45227,
        "meta_bstar": 0.0004801,
        "meta_mean_motion_dot": 0.00015045,
        "meta_mean_motion_ddot": 0,
        "tle_line1": "1 42990U 17068D   25337.36168155  .00015045  00000+0  48010-3 0  9991",
        "tle_line2": "2 42990  97.4276 107.3238 0002138  20.8158 339.3170 15.32591193452278"
      },
      "geometry": {
        "type": "Point",
        "coordinates": [
          110.82653399553001,
          -22.175704288555732
        ]
      }
    },
    {
      "type": "Feature",
      "properties": {
        "norad_id": 42991,
        "name": "SKYSAT-C7",
        "group": "resource",
        "lat": -32.08451048853503,
        "lon": -75.8649270989639,
        "alt_km": 479.2680774219916,
        "timestamp": "2025-12-03T19:33:06.637206+00:00",
        "meta_object_name": "SKYSAT-C7",
        "meta_object_id": "2017-068E",
        "meta_epoch": "2025-12-03T02:57:10.325088",
        "meta_mean_motion": 15.31993019,
        "meta_eccentricity": 0.00078615,
        "meta_inclination": 97.4281,
        "meta_ra_of_asc_node": 108.1332,
        "meta_arg_of_pericenter": 87.0209,
        "meta_mean_anomaly": 273.1932,
        "meta_ephemeris_type": 0,
        "meta_classification_type": "U",
        "meta_norad_cat_id": 42991,
        "meta_element_set_no": 999,
        "meta_rev_at_epoch": 45230,
        "meta_bstar": 0.00051571811,
        "meta_mean_motion_dot": 0.00015882,
        "meta_mean_motion_ddot": 0,
        "tle_line1": "1 42991U 17068E   25337.12303617  .00015882  00000+0  51572-3 0  9996",
        "tle_line2": "2 42991  97.4281 108.1332 0007861  87.0209 273.1932 15.31993019452306"
      },
      "geometry": {
        "type": "Point",
        "coordinates": [
          -75.8649270989639,
          -32.08451048853503
        ]
      }
    },
    {
      "type": "Feature",
      "properties": {
        "norad_id": 42992,
        "name": "SKYSAT-C6",
        "group": "resource",
        "lat": -4.385593381082044,
        "lon": 109.84601883043344,
        "alt_km": 477.2300280545405,
        "timestamp": "2025-12-03T19:33:06.637216+00:00",
        "meta_object_name": "SKYSAT-C6",
        "meta_object_id": "2017-068F",
        "meta_epoch": "2025-12-03T08:35:31.689888",
        "meta_mean_motion": 15.31177883,
        "meta_eccentricity": 0.0005146,
        "meta_inclination": 97.4315,
        "meta_ra_of_asc_node": 108.8149,
        "meta_arg_of_pericenter": 109.2046,
        "meta_mean_anomaly": 250.9752,
        "meta_ephemeris_type": 0,
        "meta_classification_type": "U",
        "meta_norad_cat_id": 42992,
        "meta_element_set_no": 999,
        "meta_rev_at_epoch": 45232,
        "meta_bstar": 0.00046777,
        "meta_mean_motion_dot": 0.00014026,
        "meta_mean_motion_ddot": 0,
        "tle_line1": "1 42992U 17068F   25337.35800567  .00014026  00000+0  46777-3 0  9998",
        "tle_line2": "2 42992  97.4315 108.8149 0005146 109.2046 250.9752 15.31177883452326"
      },
      "geometry": {
        "type": "Point",
        "coordinates": [
          109.84601883043344,
          -4.385593381082044
        ]
      }
    },
    {
      "type": "Feature",
      "properties": {
        "norad_id": 43111,
        "name": "CARTOSAT-2F",
        "group": "resource",
        "lat": 48.199388657849255,
        "lon": -136.00747546066555,
        "alt_km": 503.1473089987867,
        "timestamp": "2025-12-03T19:33:06.637226+00:00",
        "meta_object_name": "CARTOSAT-2F",
        "meta_object_id": "2018-004A",
        "meta_epoch": "2025-12-03T07:54:43.006752",
        "meta_mean_motion": 15.19349192,
        "meta_eccentricity": 0.0001095,
        "meta_inclination": 97.4331,
        "meta_ra_of_asc_node": 35.1191,
        "meta_arg_of_pericenter": 191.5703,
        "meta_mean_anomaly": 168.5506,
        "meta_ephemeris_type": 0,
        "meta_classification_type": "U",
        "meta_norad_cat_id": 43111,
        "meta_element_set_no": 999,
        "meta_rev_at_epoch": 43759,
        "meta_bstar": 7.282e-05,
        "meta_mean_motion_dot": 1.471e-05,
        "meta_mean_motion_ddot": 0,
        "tle_line1": "1 43111U 18004A   25337.32966443  .00001471  00000+0  72820-4 0  9995",
        "tle_line2": "2 43111  97.4331  35.1191 0001095 191.5703 168.5506 15.19349192437593"
      },
      "geometry": {
        "type": "Point",
        "coordinates": [
          -136.00747546066555,
          48.199388657849255
        ]
      }
    },
    {
      "type": "Feature",
      "properties": {
        "norad_id": 43259,
        "name": "GAOFEN-1 02",
        "group": "resource",
        "lat": -9.040834099415724,
        "lon": -145.69554102747585,
        "alt_km": 644.3141678500442,
        "timestamp": "2025-12-03T19:33:06.637236+00:00",
        "meta_object_name": "GAOFEN-1 02",
        "meta_object_id": "2018-031A",
        "meta_epoch": "2025-12-03T12:11:32.209152",
        "meta_mean_motion": 14.76448536,
        "meta_eccentricity": 0.0001298,
        "meta_inclination": 98.082,
        "meta_ra_of_asc_node": 35.2932,
        "meta_arg_of_pericenter": 257.4654,
        "meta_mean_anomaly": 102.641,
        "meta_ephemeris_type": 0,
        "meta_classification_type": "U",
        "meta_norad_cat_id": 43259,
        "meta_element_set_no": 999,
        "meta_rev_at_epoch": 41382,
        "meta_bstar": 0.00021743,
        "meta_mean_motion_dot": 1.461e-05,
        "meta_mean_motion_ddot": 0,
        "tle_line1": "1 43259U 18031A   25337.50801168  .00001461  00000+0  21743-3 0  9996",
        "tle_line2": "2 43259  98.0820  35.2932 0001298 257.4654 102.6410 14.76448536413829"
      },
      "geometry": {
        "type": "Point",
        "coordinates": [
          -145.69554102747585,
          -9.040834099415724
        ]
      }
    }
  ]
}